BEIDOU-3 G1 (C59)       
1 43683U 18085A   24189.57772672 -.00000285  00000+0  00000+0 0  9997
2 43683   2.2413 108.8172 0003707   2.4336 162.6724  1.00266835 20944
BEIDOU-3 G2 (C60)       
1 45344U 20017A   24190.13823237 -.00000145  00000+0  00000+0 0  9994
2 45344   2.3410  30.4599 0001694 134.3207 251.6069  1.00272225 16166
BEIDOU-3 G3 (C61)       
1 45807U 20040A   24189.79154255 -.00000357  00000+0  00000+0 0  9996
2 45807   0.8115  44.8791 0004437  15.1903 261.6548  1.00268167 14975
ANIK F1R                
1 28868U 05036A   24189.67171713 -.00000079  00000+0  00000+0 0  9998
2 28868   2.4842  85.4113 0003445  19.5817 315.6176  1.00271800 69040
INMARSAT 4-F2           
1 28899U 05044A   24189.50683569 -.00000266  00000+0  00000+0 0  9998
2 28899   4.2108  42.5342 0001634  73.8585 135.5013  1.00271915 68405
GSAT-8                  
1 37605U 11022A   24189.84710113  .00000081  00000+0  00000+0 0  9993
2 37605   0.2919  91.2671 0002823 166.7880  28.2577  1.00273339 48125
LUCH-5A                 
1 37951U 11074B   24189.48521876 -.00000056  00000+0  00000+0 0  9993
2 37951   6.9365  84.6576 0003858  26.9854 155.9302  1.00274518 45934
SES-5                   
1 38652U 12036A   24189.83714351  .00000031  00000+0  00000+0 0  9994
2 38652   0.0661 295.1321 0001946 165.9324 131.5538  1.00272924 43956
GSAT-10                 
1 38779U 12051B   24189.63795049 -.00000168  00000+0  00000+0 0  9994
2 38779   0.0169 286.7772 0000617  54.3471 257.6038  1.00270283 43178
LUCH-5B                 
1 38977U 12061A   24189.96021840 -.00000143  00000+0  00000+0 0  9995
2 38977   8.9331  56.5260 0004544 102.4927  96.7916  1.00272603 43068
ASTRA 5B                
1 39617U 14011B   24189.76923050  .00000134  00000+0  00000+0 0  9995
2 39617   0.0694 308.6258 0001833 166.8876 111.1092  1.00269951 37756
LUCH-5V                 
1 39727U 14023A   24190.14119113 -.00000272  00000+0  00000+0 0  9995
2 39727   3.3483  75.9176 0002350  85.7171 270.4617  1.00269048555401
GSAT-15                 
1 41028U 15065A   24189.13910400 -.00000262  00000+0  00000+0 0  9993
2 41028   0.0138  92.5678 0003366   2.4459 334.1391  1.00272515 31683
EUTELSAT 117 WEST B     
1 41589U 16038B   24189.66971561 -.00000015  00000+0  00000+0 0  9995
2 41589   0.0038 192.9656 0000183 260.9099 316.3362  1.00268422 29599
SES-15                  
1 42709U 17026A   24189.73891263  .00000057  00000+0  00000+0 0  9991
2 42709   0.0201  34.8418 0000137  41.3392 346.8497  1.00269184 27076
QZS-2 (MICHIBIKI-2)     
1 42738U 17028A   24188.46195543 -.00000158  00000+0  00000+0 0  9995
2 42738  40.5420 253.4839 0757875 269.4335  69.8869  1.00279302   499
QZS-3 (MICHIBIKI-3)     
1 42917U 17048A   24190.02966010 -.00000351  00000+0  00000+0 0  9991
2 42917   0.0663 213.7694 0001978 259.1534 311.2466  1.00273986 25259
QZS-4 (MICHIBIKI-4)     
1 42965U 17062A   24176.78903547 -.00000324  00000+0  00000+0 0  9993
2 42965  40.5115 352.6916 0746082 271.6310  68.9097  1.00249876 24566
GALAXY 30 (G-30)        
1 46114U 20056C   24189.73969582  .00000033  00000+0  00000+0 0  9996
2 46114   0.0187  34.7947 0001684  71.0448 321.6337  1.00272516 14296
QZS-1R                  
1 49336U 21096A   24188.63851399 -.00000316  00000+0  00000+0 0  9999
2 49336  35.9831  90.2329 0757361 271.8947 285.7525  1.00252391  9880
